<?xml version='1.0' encoding='utf-8'?>
<q:quakeml xmlns:q="http://quakeml.org/xmlns/quakeml/1.2" xmlns="http://quakeml.org/xmlns/bed/1.2">
  <eventParameters publicID="smi:local/1f1b3d02-74f7-4320-9488-0087fb5c626c">
    <event publicID="smi:local/3158881e-3893-4a33-b0e9-2036481e20c3">
      <preferredOriginID>smi:local/7668c631-3b7f-4ff4-8adf-d5e252e57569</preferredOriginID>
      <description>
        <text>LT</text>
      </description>
      <origin publicID="smi:local/7668c631-3b7f-4ff4-8adf-d5e252e57569">
        <time>
          <value>2019-01-28T20:54:47.512000Z</value>
        </time>
        <latitude>
          <value>47.6839697738889</value>
        </latitude>
        <longitude>
          <value>-117.40964110410752</value>
        </longitude>
        <depth>
          <value>-724.9533333333334</value>
        </depth>
        <depthType>from location</depthType>
        <timeFixed>false</timeFixed>
        <epicenterFixed>false</epicenterFixed>
        <methodID>smi:local/nllpy_version1.0.0</methodID>
        <quality>
          <associatedPhaseCount>11</associatedPhaseCount>
          <usedPhaseCount>11</usedPhaseCount>
          <associatedStationCount>-1</associatedStationCount>
          <usedStationCount>11</usedStationCount>
          <depthPhaseCount>-1</depthPhaseCount>
          <standardError>0.0106562</standardError>
          <azimuthalGap>319.348</azimuthalGap>
          <secondaryAzimuthalGap>326.934</secondaryAzimuthalGap>
          <minimumDistance>0.002126382984682424</minimumDistance>
          <maximumDistance>0.006501762461798232</maximumDistance>
          <medianDistance>0.004453287707836547</medianDistance>
        </quality>
        <type>hypocenter</type>
        <evaluationMode>manual</evaluationMode>
        <evaluationStatus>reviewed</evaluationStatus>
        <comment id="smi:local/00425d97-a216-419e-a6e3-d9713deac6e7">
          <text>['UMWM May 2018 deployment']</text>
          <creationInfo>
            <creationTime>2019-11-30T18:49:50.207874Z</creationTime>
          </creationInfo>
        </comment>
        <comment id="smi:local/ddb2a821-be8a-40a0-b6bf-0c288af1880a">
          <text>GRID  11 14 23  0 0.5 -2.85  0.1 0.1 0.1 PROB_DENSITY</text>
          <creationInfo>
            <creationTime>2019-11-30T18:49:50.208060Z</creationTime>
          </creationInfo>
        </comment>
        <comment id="smi:local/9ebfb0af-ff86-418e-bb57-941d231fcd38">
          <text>SEARCH OCTREE nInitial 2860 nEvaluated 300012 smallestNodeSide 0.003125/0.003125/0.003267 oct_tree_integral 9.710074e-03 scatter_volume 9.710074e-03</text>
          <creationInfo>
            <creationTime>2019-11-30T18:49:50.208312Z</creationTime>
          </creationInfo>
        </comment>
        <comment id="smi:local/556c396d-96d8-4d5a-bc64-c04fcd5f6349">
          <text>VPVSRATIO  VpVsRatio -1  Npair 0  Diff -2e+30</text>
          <creationInfo>
            <creationTime>2019-11-30T18:49:50.208479Z</creationTime>
          </creationInfo>
        </comment>
        <comment id="smi:local/25503e7f-231a-4617-a8be-cd5e5817821a">
          <text>STAT_GEOG  ExpectLat 1.59453 Long 0.0927597 Depth -2.61462</text>
          <creationInfo>
            <creationTime>2019-11-30T18:49:50.208662Z</creationTime>
          </creationInfo>
        </comment>
        <comment id="smi:local/bab939c4-2b43-443a-8384-ac6e238907de">
          <text>TRANSFORM  NONE</text>
          <creationInfo>
            <creationTime>2019-11-30T18:49:50.208942Z</creationTime>
          </creationInfo>
        </comment>
        <creationInfo>
          <creationTime>2019-11-30T18:49:50.213446Z</creationTime>
        </creationInfo>
        <originUncertainty>
          <preferredDescription>uncertainty ellipse</preferredDescription>
          <horizontalUncertainty>-1.0</horizontalUncertainty>
          <minHorizontalUncertainty>0.000705784898360202</minHorizontalUncertainty>
          <maxHorizontalUncertainty>0.0016192465378887927</maxHorizontalUncertainty>
          <azimuthMaxHorizontalUncertainty>158.982</azimuthMaxHorizontalUncertainty>
          <confidenceLevel>68.0</confidenceLevel>
        </originUncertainty>
        <arrival publicID="smi:local/fdfd81cd-b10e-4c88-b794-5685ef64314d">
          <pickID>smi:local/3a6ec320-d673-4997-afb3-bc18c493a361</pickID>
          <phase>P</phase>
          <azimuth>117.39</azimuth>
          <distance>0.0021259962763918792</distance>
          <timeResidual>-0.0018</timeResidual>
          <timeWeight>1.4391</timeWeight>
          <creationInfo>
            <creationTime>2019-11-30T18:49:50.209351Z</creationTime>
          </creationInfo>
        </arrival>
        <arrival publicID="smi:local/85870fcf-8204-4718-9672-1b3509ddaf52">
          <pickID>smi:local/0d5f57ca-fb64-4e8e-8a31-a93ad9c32d35</pickID>
          <phase>P</phase>
          <azimuth>138.92</azimuth>
          <distance>0.002480328989123859</distance>
          <timeResidual>0.0022</timeResidual>
          <timeWeight>1.4105</timeWeight>
          <creationInfo>
            <creationTime>2019-11-30T18:49:50.209705Z</creationTime>
          </creationInfo>
        </arrival>
        <arrival publicID="smi:local/f26ff0fc-b098-42b8-a520-b451f59bdbc1">
          <pickID>smi:local/b5788c48-b4fa-4a87-8b83-e32de402d924</pickID>
          <phase>P</phase>
          <azimuth>151.48</azimuth>
          <distance>0.003600883710098597</distance>
          <timeResidual>0.0014</timeResidual>
          <timeWeight>1.4215</timeWeight>
          <creationInfo>
            <creationTime>2019-11-30T18:49:50.210045Z</creationTime>
          </creationInfo>
        </arrival>
        <arrival publicID="smi:local/5a7f7d64-af5b-41fb-abaf-325ebb0010be">
          <pickID>smi:local/aecb3fed-26ed-411d-9398-aeebff86f3d2</pickID>
          <phase>P</phase>
          <azimuth>111.4</azimuth>
          <distance>0.0038068283578539864</distance>
          <timeResidual>-0.0139</timeResidual>
          <timeWeight>0.9469</timeWeight>
          <creationInfo>
            <creationTime>2019-11-30T18:49:50.210496Z</creationTime>
          </creationInfo>
        </arrival>
        <arrival publicID="smi:local/0ca2518b-0e29-4a64-936e-027768ededbd">
          <pickID>smi:local/77ac7194-930e-4234-bad1-8fca8ec3111e</pickID>
          <phase>P</phase>
          <azimuth>136.42</azimuth>
          <distance>0.004242100015118652</distance>
          <timeResidual>0.0038</timeResidual>
          <timeWeight>1.3685</timeWeight>
          <creationInfo>
            <creationTime>2019-11-30T18:49:50.210829Z</creationTime>
          </creationInfo>
        </arrival>
        <arrival publicID="smi:local/a8a2791d-aa06-4b3b-8f20-863f93b51ee2">
          <pickID>smi:local/57ae9ac7-103d-4374-87b8-ab74c6654a16</pickID>
          <phase>P</phase>
          <azimuth>124.54</azimuth>
          <distance>0.004453440592509554</distance>
          <timeResidual>-0.0072</timeResidual>
          <timeWeight>1.3002</timeWeight>
          <creationInfo>
            <creationTime>2019-11-30T18:49:50.211177Z</creationTime>
          </creationInfo>
        </arrival>
        <arrival publicID="smi:local/9427025e-4e23-42e6-bd82-07df0fe0ff2e">
          <pickID>smi:local/0e26fb2a-cd53-46f0-9e56-f47a0e94ac58</pickID>
          <phase>P</phase>
          <azimuth>143.9</azimuth>
          <distance>0.004769102476187028</distance>
          <timeResidual>-0.014</timeResidual>
          <timeWeight>0.9441</timeWeight>
          <creationInfo>
            <creationTime>2019-11-30T18:49:50.211512Z</creationTime>
          </creationInfo>
        </arrival>
        <arrival publicID="smi:local/c297726b-959b-4da2-947e-e2394e7c7610">
          <pickID>smi:local/480366e5-884e-4766-b32f-a1adddae6bee</pickID>
          <phase>P</phase>
          <azimuth>129.74</azimuth>
          <distance>0.005053288103657347</distance>
          <timeResidual>-0.0401</timeResidual>
          <timeWeight>0.0492</timeWeight>
          <creationInfo>
            <creationTime>2019-11-30T18:49:50.211856Z</creationTime>
          </creationInfo>
        </arrival>
        <arrival publicID="smi:local/1c247317-dda4-4878-8b05-d124e87fdd51">
          <pickID>smi:local/1721258d-781d-4617-9d1b-ea16ef6e99b6</pickID>
          <phase>P</phase>
          <azimuth>119.34</azimuth>
          <distance>0.006047038478197544</distance>
          <timeResidual>0.0252</timeResidual>
          <timeWeight>0.4962</timeWeight>
          <creationInfo>
            <creationTime>2019-11-30T18:49:50.212282Z</creationTime>
          </creationInfo>
        </arrival>
        <arrival publicID="smi:local/7e2f692c-9f0b-45cf-bd21-b5bc7d2ad92f">
          <pickID>smi:local/351478d3-b08f-423b-9ab6-e4b8e1d42f33</pickID>
          <phase>P</phase>
          <azimuth>110.83</azimuth>
          <distance>0.006194527221568216</distance>
          <timeResidual>0.0101</timeResidual>
          <timeWeight>1.13</timeWeight>
          <creationInfo>
            <creationTime>2019-11-30T18:49:50.212620Z</creationTime>
          </creationInfo>
        </arrival>
        <arrival publicID="smi:local/43485608-926b-4f75-9312-2a71b740fd8a">
          <pickID>smi:local/bc706bdb-953a-4f0d-b534-c093839354d6</pickID>
          <phase>P</phase>
          <azimuth>132.58</azimuth>
          <distance>0.006502095210792422</distance>
          <timeResidual>0.0253</timeResidual>
          <timeWeight>0.4938</timeWeight>
          <creationInfo>
            <creationTime>2019-11-30T18:49:50.212958Z</creationTime>
          </creationInfo>
        </arrival>
      </origin>
      <magnitude publicID="smi:local/68b1d5c0-71eb-4e7e-95ad-8c93df68ee68">
        <mag>
          <value>-0.19257858186565513</value>
          <uncertainty>0.11122072655847304</uncertainty>
          <confidenceLevel>95.0</confidenceLevel>
        </mag>
        <type>ML</type>
        <originID>smi:local/7668c631-3b7f-4ff4-8adf-d5e252e57569</originID>
        <methodID>smi:local/magpy_version0.0.0</methodID>
        <stationCount>22</stationCount>
        <azimuthalGap>7.585941270850469</azimuthalGap>
        <evaluationMode>automatic</evaluationMode>
        <stationMagnitudeContribution>
          <stationMagnitudeID>smi:local/a0ae0ac6-7c55-403d-8481-7804815710cc</stationMagnitudeID>
          <weight>1.0</weight>
          <residual>0.09529239745898921</residual>
        </stationMagnitudeContribution>
        <stationMagnitudeContribution>
          <stationMagnitudeID>smi:local/71248611-f76b-4eec-95ec-666b59c3ab76</stationMagnitudeID>
          <weight>1.0</weight>
          <residual>-0.19149485631361807</residual>
        </stationMagnitudeContribution>
        <stationMagnitudeContribution>
          <stationMagnitudeID>smi:local/5f0773ab-b636-4397-ac50-99dc5606840e</stationMagnitudeID>
          <weight>1.0</weight>
          <residual>0.026436852974897063</residual>
        </stationMagnitudeContribution>
        <stationMagnitudeContribution>
          <stationMagnitudeID>smi:local/4f354924-528b-47f2-9942-3adf3faca10d</stationMagnitudeID>
          <weight>1.0</weight>
          <residual>0.006619016332935379</residual>
        </stationMagnitudeContribution>
        <stationMagnitudeContribution>
          <stationMagnitudeID>smi:local/a74d6133-49ce-4c40-8696-d000c2ecb3c6</stationMagnitudeID>
          <weight>1.0</weight>
          <residual>-0.1875298314137741</residual>
        </stationMagnitudeContribution>
        <stationMagnitudeContribution>
          <stationMagnitudeID>smi:local/043e78cb-04e5-4af1-9d5d-5c55bed5c7e2</stationMagnitudeID>
          <weight>1.0</weight>
          <residual>0.23647598160265182</residual>
        </stationMagnitudeContribution>
        <stationMagnitudeContribution>
          <stationMagnitudeID>smi:local/d181da4c-467c-42d5-be9c-fadf6c38a00c</stationMagnitudeID>
          <weight>1.0</weight>
          <residual>-0.015070575310658585</residual>
        </stationMagnitudeContribution>
        <stationMagnitudeContribution>
          <stationMagnitudeID>smi:local/d9379e59-06aa-45a4-a29a-2bf256534c61</stationMagnitudeID>
          <weight>1.0</weight>
          <residual>0.06972925640265815</residual>
        </stationMagnitudeContribution>
        <stationMagnitudeContribution>
          <stationMagnitudeID>smi:local/3060dfd9-3ffb-4ec7-8524-1cce393d7a49</stationMagnitudeID>
          <weight>1.0</weight>
          <residual>-0.006619016332935379</residual>
        </stationMagnitudeContribution>
        <stationMagnitudeContribution>
          <stationMagnitudeID>smi:local/c392b0fe-ac02-4940-a84f-e656fe1733fb</stationMagnitudeID>
          <weight>1.0</weight>
          <residual>-0.05227449643910842</residual>
        </stationMagnitudeContribution>
        <stationMagnitudeContribution>
          <stationMagnitudeID>smi:local/be279029-3c5a-41dd-9ffd-02522af4885e</stationMagnitudeID>
          <weight>1.0</weight>
          <residual>-0.11122072655847304</residual>
        </stationMagnitudeContribution>
        <stationMagnitudeContribution>
          <stationMagnitudeID>smi:local/d55a9a23-e5a0-475a-9f1f-c31632fe0f9d</stationMagnitudeID>
          <weight>1.0</weight>
          <residual>0.055682534606153355</residual>
        </stationMagnitudeContribution>
        <stationMagnitudeContribution>
          <stationMagnitudeID>smi:local/2d887aa6-acf5-413c-9505-29247ff4a8f2</stationMagnitudeID>
          <weight>1.0</weight>
          <residual>-0.1371670520350039</residual>
        </stationMagnitudeContribution>
        <stationMagnitudeContribution>
          <stationMagnitudeID>smi:local/b110abd7-dbc1-4cc9-8d96-9f491fe5789c</stationMagnitudeID>
          <weight>1.0</weight>
          <residual>0.18929746468840203</residual>
        </stationMagnitudeContribution>
        <stationMagnitudeContribution>
          <stationMagnitudeID>smi:local/8bde2e9e-3c56-4f4e-9d5b-1333123bd33c</stationMagnitudeID>
          <weight>1.0</weight>
          <residual>0.1789633798571899</residual>
        </stationMagnitudeContribution>
        <stationMagnitudeContribution>
          <stationMagnitudeID>smi:local/cb5c0687-ad25-4bc1-8486-9b495d8fafc2</stationMagnitudeID>
          <weight>1.0</weight>
          <residual>0.04171055990965056</residual>
        </stationMagnitudeContribution>
        <stationMagnitudeContribution>
          <stationMagnitudeID>smi:local/c8869603-f996-4b02-89ee-0c87db4214de</stationMagnitudeID>
          <weight>1.0</weight>
          <residual>-0.15659200260656392</residual>
        </stationMagnitudeContribution>
        <stationMagnitudeContribution>
          <stationMagnitudeID>smi:local/17c1d252-7123-4074-bc6e-07af825d2e85</stationMagnitudeID>
          <weight>1.0</weight>
          <residual>0.10318022707860375</residual>
        </stationMagnitudeContribution>
        <stationMagnitudeContribution>
          <stationMagnitudeID>smi:local/4f0a528c-7c8b-4ece-9678-3729855c8173</stationMagnitudeID>
          <weight>1.0</weight>
          <residual>-0.2015202171969952</residual>
        </stationMagnitudeContribution>
        <stationMagnitudeContribution>
          <stationMagnitudeID>smi:local/30af8ad7-fe24-4132-9d51-d40d36495214</stationMagnitudeID>
          <weight>1.0</weight>
          <residual>-0.08759487286176593</residual>
        </stationMagnitudeContribution>
        <stationMagnitudeContribution>
          <stationMagnitudeID>smi:local/e5eb36a8-93b1-4ba6-b959-93101c891e27</stationMagnitudeID>
          <weight>1.0</weight>
          <residual>-0.1581847360598656</residual>
        </stationMagnitudeContribution>
        <stationMagnitudeContribution>
          <stationMagnitudeID>smi:local/f15b6716-b305-4621-9190-e2a220838394</stationMagnitudeID>
          <weight>1.0</weight>
          <residual>0.0649365917993523</residual>
        </stationMagnitudeContribution>
        <creationInfo>
          <creationTime>2019-11-30T20:34:12.342940Z</creationTime>
        </creationInfo>
      </magnitude>
      <pick publicID="smi:local/3a6ec320-d673-4997-afb3-bc18c493a361">
        <time>
          <value>2019-01-28T20:54:48.110000Z</value>
          <uncertainty>0.005</uncertainty>
        </time>
        <waveformID channelCode="DPZ" locationCode="1" networkCode="1" stationCode="10"></waveformID>
        <onset>questionable</onset>
        <phaseHint>P</phaseHint>
        <polarity>undecidable</polarity>
        <creationInfo>
          <creationTime>2019-11-30T18:49:50.197114Z</creationTime>
        </creationInfo>
      </pick>
      <pick publicID="smi:local/0d5f57ca-fb64-4e8e-8a31-a93ad9c32d35">
        <time>
          <value>2019-01-28T20:54:48.120000Z</value>
          <uncertainty>0.005</uncertainty>
        </time>
        <waveformID channelCode="DPZ" locationCode="1" networkCode="1" stationCode="4"></waveformID>
        <onset>questionable</onset>
        <phaseHint>P</phaseHint>
        <polarity>undecidable</polarity>
        <creationInfo>
          <creationTime>2019-11-30T18:49:50.198110Z</creationTime>
        </creationInfo>
      </pick>
      <pick publicID="smi:local/b5788c48-b4fa-4a87-8b83-e32de402d924">
        <time>
          <value>2019-01-28T20:54:48.140000Z</value>
          <uncertainty>0.005</uncertainty>
        </time>
        <waveformID channelCode="DPZ" locationCode="1" networkCode="1" stationCode="8"></waveformID>
        <onset>questionable</onset>
        <phaseHint>P</phaseHint>
        <polarity>undecidable</polarity>
        <creationInfo>
          <creationTime>2019-11-30T18:49:50.199029Z</creationTime>
        </creationInfo>
      </pick>
      <pick publicID="smi:local/aecb3fed-26ed-411d-9398-aeebff86f3d2">
        <time>
          <value>2019-01-28T20:54:48.140000Z</value>
          <uncertainty>0.005</uncertainty>
        </time>
        <waveformID channelCode="DPZ" locationCode="1" networkCode="1" stationCode="2"></waveformID>
        <onset>questionable</onset>
        <phaseHint>P</phaseHint>
        <polarity>undecidable</polarity>
        <creationInfo>
          <creationTime>2019-11-30T18:49:50.199969Z</creationTime>
        </creationInfo>
      </pick>
      <pick publicID="smi:local/77ac7194-930e-4234-bad1-8fca8ec3111e">
        <time>
          <value>2019-01-28T20:54:48.170000Z</value>
          <uncertainty>0.005</uncertainty>
        </time>
        <waveformID channelCode="DPZ" locationCode="1" networkCode="1" stationCode="11"></waveformID>
        <onset>questionable</onset>
        <phaseHint>P</phaseHint>
        <polarity>undecidable</polarity>
        <creationInfo>
          <creationTime>2019-11-30T18:49:50.200938Z</creationTime>
        </creationInfo>
      </pick>
      <pick publicID="smi:local/57ae9ac7-103d-4374-87b8-ab74c6654a16">
        <time>
          <value>2019-01-28T20:54:48.160000Z</value>
          <uncertainty>0.005</uncertainty>
        </time>
        <waveformID channelCode="DPZ" locationCode="1" networkCode="1" stationCode="5"></waveformID>
        <onset>questionable</onset>
        <phaseHint>P</phaseHint>
        <polarity>undecidable</polarity>
        <creationInfo>
          <creationTime>2019-11-30T18:49:50.201873Z</creationTime>
        </creationInfo>
      </pick>
      <pick publicID="smi:local/0e26fb2a-cd53-46f0-9e56-f47a0e94ac58">
        <time>
          <value>2019-01-28T20:54:48.160000Z</value>
          <uncertainty>0.005</uncertainty>
        </time>
        <waveformID channelCode="DPZ" locationCode="1" networkCode="1" stationCode="7"></waveformID>
        <onset>questionable</onset>
        <phaseHint>P</phaseHint>
        <polarity>undecidable</polarity>
        <creationInfo>
          <creationTime>2019-11-30T18:49:50.202914Z</creationTime>
        </creationInfo>
      </pick>
      <pick publicID="smi:local/480366e5-884e-4766-b32f-a1adddae6bee">
        <time>
          <value>2019-01-28T20:54:48.150000Z</value>
          <uncertainty>0.005</uncertainty>
        </time>
